{
  "type": "FeatureCollection",
  "features": [
    {
      "type": "Feature",
      "properties": {
        "norad_id": 66884,
        "name": "STARLINK-36057",
        "group": "last-30-days",
        "lat": -43.66298498758864,
        "lon": -114.879474384655,
        "alt_km": 367.5880661701076,
        "timestamp": "2025-12-23T14:49:07.966803+00:00",
        "meta_object_name": "STARLINK-36057",
        "meta_object_id": "2025-283G",
        "meta_epoch": "2025-12-23T06:00:00.999648",
        "meta_mean_motion": 15.7040999,
        "meta_eccentricity": 0.00010816,
        "meta_inclination": 53.1588,
        "meta_ra_of_asc_node": 21.2428,
        "meta_arg_of_pericenter": 94.2941,
        "meta_mean_anomaly": 227.8291,
        "meta_ephemeris_type": 0,
        "meta_classification_type": "U",
        "meta_norad_cat_id": 66884,
        "meta_element_set_no": 999,
        "meta_rev_at_epoch": 411,
        "meta_bstar": -0.017984236,
        "meta_mean_motion_dot": -0.01981346,
        "meta_mean_motion_ddot": 0,
        "tle_line1": "1 66884U 25283G   25357.25001157 -.01981346  00000+0 -17984-1 0  9998",
        "tle_line2": "2 66884  53.1588  21.2428 0001081  94.2941 227.8291 15.70409990  4113"
      },
      "geometry": {
        "type": "Point",
        "coordinates": [
          -114.879474384655,
          -43.66298498758864
        ]
      }
    },
    {
      "type": "Feature",
      "properties": {
        "norad_id": 66885,
        "name": "STARLINK-35954",
        "group": "last-30-days",
        "lat": -42.572102849793296,
        "lon": -117.03266574746114,
        "alt_km": 367.5567407605504,
        "timestamp": "2025-12-23T14:49:07.966820+00:00",
        "meta_object_name": "STARLINK-35954",
        "meta_object_id": "2025-283H",
        "meta_epoch": "2025-12-23T06:00:00.999648",
        "meta_mean_motion": 15.70410427,
        "meta_eccentricity": 9.755e-05,
        "meta_inclination": 53.1591,
        "meta_ra_of_asc_node": 21.2468,
        "meta_arg_of_pericenter": 82.9961,
        "meta_mean_anomaly": 237.2109,
        "meta_ephemeris_type": 0,
        "meta_classification_type": "U",
        "meta_norad_cat_id": 66885,
        "meta_element_set_no": 999,
        "meta_rev_at_epoch": 411,
        "meta_bstar": -0.017982985,
        "meta_mean_motion_dot": -0.01981176,
        "meta_mean_motion_ddot": 0,
        "tle_line1": "1 66885U 25283H   25357.25001157 -.01981176  00000+0 -17983-1 0  9999",
        "tle_line2": "2 66885  53.1591  21.2468 0000975  82.9961 237.2109 15.70410427  4119"
      },
      "geometry": {
        "type": "Point",
        "coordinates": [
          -117.03266574746114,
          -42.572102849793296
        ]
      }
    },
    {
      "type": "Feature",
      "properties": {
        "norad_id": 66886,
        "name": "STARLINK-35900",
        "group": "last-30-days",
        "lat": -44.7143340429507,
        "lon": -112.64410552140944,
        "alt_km": 367.5913495415134,
        "timestamp": "2025-12-23T14:49:07.966836+00:00",
        "meta_object_name": "STARLINK-35900",
        "meta_object_id": "2025-283J",
        "meta_epoch": "2025-12-23T06:00:00.999648",
        "meta_mean_motion": 15.70341682,
        "meta_eccentricity": 0.00012563,
        "meta_inclination": 53.1592,
        "meta_ra_of_asc_node": 21.2386,
        "meta_arg_of_pericenter": 115.706,
        "meta_mean_anomaly": 208.3861,
        "meta_ephemeris_type": 0,
        "meta_classification_type": "U",
        "meta_norad_cat_id": 66886,
        "meta_element_set_no": 999,
        "meta_rev_at_epoch": 411,
        "meta_bstar": -0.017338855,
        "meta_mean_motion_dot": -0.01913579,
        "meta_mean_motion_ddot": 0,
        "tle_line1": "1 66886U 25283J   25357.25001157 -.01913579  00000+0 -17339-1 0  9997",
        "tle_line2": "2 66886  53.1592  21.2386 0001256 115.7060 208.3861 15.70341682  4118"
      },
      "geometry": {
        "type": "Point",
        "coordinates": [
          -112.64410552140944,
          -44.7143340429507
        ]
      }
    },
    {
      "type": "Feature",
      "properties": {
        "norad_id": 66887,
        "name": "STARLINK-35925",
        "group": "last-30-days",
        "lat": -45.71342493071242,
        "lon": -110.34302808530141,
        "alt_km": 367.7066479234363,
        "timestamp": "2025-12-23T14:49:07.966853+00:00",
        "meta_object_name": "STARLINK-35925",
        "meta_object_id": "2025-283K",
        "meta_epoch": "2025-12-23T06:00:00.999648",
        "meta_mean_motion": 15.70408419,
        "meta_eccentricity": 0.00010504,
        "meta_inclination": 53.1592,
        "meta_ra_of_asc_node": 21.2349,
        "meta_arg_of_pericenter": 87.1056,
        "meta_mean_anomaly": 238.8528,
        "meta_ephemeris_type": 0,
        "meta_classification_type": "U",
        "meta_norad_cat_id": 66887,
        "meta_element_set_no": 999,
        "meta_rev_at_epoch": 411,
        "meta_bstar": -0.017975605,
        "meta_mean_motion_dot": -0.01980367,
        "meta_mean_motion_ddot": 0,
        "tle_line1": "1 66887U 25283K   25357.25001157 -.01980367  00000+0 -17976-1 0  9994",
        "tle_line2": "2 66887  53.1592  21.2349 0001050  87.1056 238.8528 15.70408419  4117"
      },
      "geometry": {
        "type": "Point",
        "coordinates": [
          -110.34302808530141,
          -45.71342493071242
        ]
      }
    },
    {
      "type": "Feature",
      "properties": {
        "norad_id": 66888,
        "name": "STARLINK-35919",
        "group": "last-30-days",
        "lat": -46.66707746358649,
        "lon": -107.95385001232418,
        "alt_km": 367.7708239023177,
        "timestamp": "2025-12-23T14:49:07.966873+00:00",
        "meta_object_name": "STARLINK-35919",
        "meta_object_id": "2025-283L",
        "meta_epoch": "2025-12-23T06:00:00.999648",
        "meta_mean_motion": 15.70406902,
        "meta_eccentricity": 0.00010574,
        "meta_inclination": 53.1593,
        "meta_ra_of_asc_node": 21.2309,
        "meta_arg_of_pericenter": 82.2574,
        "meta_mean_anomaly": 245.6173,
        "meta_ephemeris_type": 0,
        "meta_classification_type": "U",
        "meta_norad_cat_id": 66888,
        "meta_element_set_no": 999,
        "meta_rev_at_epoch": 411,
        "meta_bstar": -0.017953037,
        "meta_mean_motion_dot": -0.01978067,
        "meta_mean_motion_ddot": 0,
        "tle_line1": "1 66888U 25283L   25357.25001157 -.01978067  00000+0 -17953-1 0  9994",
        "tle_line2": "2 66888  53.1593  21.2309 0001057  82.2574 245.6173 15.70406902  4110"
      },
      "geometry": {
        "type": "Point",
        "coordinates": [
          -107.95385001232418,
          -46.66707746358649
        ]
      }
    },
    {
      "type": "Feature",
      "properties": {
        "norad_id": 66889,
        "name": "STARLINK-35852",
        "group": "last-30-days",
        "lat": -47.56964194092076,
        "lon": -105.47949997964133,
        "alt_km": 367.8454593980505,
        "timestamp": "2025-12-23T14:49:07.966890+00:00",
        "meta_object_name": "STARLINK-35852",
        "meta_object_id": "2025-283M",
        "meta_epoch": "2025-12-23T06:00:00.999648",
        "meta_mean_motion": 15.7041048,
        "meta_eccentricity": 0.0001104,
        "meta_inclination": 53.1591,
        "meta_ra_of_asc_node": 21.226,
        "meta_arg_of_pericenter": 80.9684,
        "meta_mean_anomaly": 248.821,
        "meta_ephemeris_type": 0,
        "meta_classification_type": "U",
        "meta_norad_cat_id": 66889,
        "meta_element_set_no": 999,
        "meta_rev_at_epoch": 411,
        "meta_bstar": -0.017993378,
        "meta_mean_motion_dot": -0.01982287,
        "meta_mean_motion_ddot": 0,
        "tle_line1": "1 66889U 25283M   25357.25001157 -.01982287  00000+0 -17993-1 0  9998",
        "tle_line2": "2 66889  53.1591  21.2260 0001104  80.9684 248.8210 15.70410480  4118"
      },
      "geometry": {
        "type": "Point",
        "coordinates": [
          -105.47949997964133,
          -47.56964194092076
        ]
      }
    },
    {
      "type": "Feature",
      "properties": {
        "norad_id": 66890,
        "name": "STARLINK-35885",
        "group": "last-30-days",
        "lat": -48.41801176833311,
        "lon": -102.91599549202573,
        "alt_km": 367.8092476034253,
        "timestamp": "2025-12-23T14:49:07.966907+00:00",
        "meta_object_name": "STARLINK-35885",
        "meta_object_id": "2025-283N",
        "meta_epoch": "2025-12-23T06:00:00.999648",
        "meta_mean_motion": 15.70414882,
        "meta_eccentricity": 0.00010549,
        "meta_inclination": 53.1588,
        "meta_ra_of_asc_node": 21.2223,
        "meta_arg_of_pericenter": 92.1653,
        "meta_mean_anomaly": 239.5399,
        "meta_ephemeris_type": 0,
        "meta_classification_type": "U",
        "meta_norad_cat_id": 66890,
        "meta_element_set_no": 999,
        "meta_rev_at_epoch": 411,
        "meta_bstar": -0.018046569,
        "meta_mean_motion_dot": -0.01987741,
        "meta_mean_motion_ddot": 0,
        "tle_line1": "1 66890U 25283N   25357.25001157 -.01987741  00000+0 -18047-1 0  9991",
        "tle_line2": "2 66890  53.1588  21.2223 0001054  92.1653 239.5399 15.70414882  4115"
      },
      "geometry": {
        "type": "Point",
        "coordinates": [
          -102.91599549202573,
          -48.41801176833311
        ]
      }
    }
  ]
}